{
    "links": {
        "self": "http://www.neowsapp.com/rest/v1/neo/54053918?api_key=iIulBulltgU6a56xZRHN4H3l9WmuAYTsLGpBGhQ2"
    },
    "id": "54053918",
    "neo_reference_id": "54053918",
    "name": "(2020 RH3)",
    "designation": "2020 RH3",
    "nasa_jpl_url": "http://ssd.jpl.nasa.gov/sbdb.cgi?sstr=54053918",
    "absolute_magnitude_h": 22.638,
    "estimated_diameter": {
        "kilometers": {
            "estimated_diameter_min": 0.0788778341,
            "estimated_diameter_max": 0.1763761989
        },
        "meters": {
            "estimated_diameter_min": 78.8778340576,
            "estimated_diameter_max": 176.3761988707
        },
        "miles": {
            "estimated_diameter_min": 0.0490123986,
            "estimated_diameter_max": 0.1095950551
        },
        "feet": {
            "estimated_diameter_min": 258.7855530895,
            "estimated_diameter_max": 578.662088303
        }
    },
    "is_potentially_hazardous_asteroid": false,
    "close_approach_data": [
        {
            "close_approach_date": "2019-03-11",
            "close_approach_date_full": "2019-Mar-11 12:05",
            "epoch_date_close_approach": 1552305900000,
            "relative_velocity": {
                "kilometers_per_second": "20.7679746152",
                "kilometers_per_hour": "74764.7086146664",
                "miles_per_hour": "46455.8824167076"
            },
            "miss_distance": {
                "astronomical": "0.1585507043",
                "lunar": "61.6762239727",
                "kilometers": "23718847.650279841",
                "miles": "14738208.5100741658"
            },
            "orbiting_body": "Earth"
        },
        {
            "close_approach_date": "2020-09-24",
            "close_approach_date_full": "2020-Sep-24 13:42",
            "epoch_date_close_approach": 1600954920000,
            "relative_velocity": {
                "kilometers_per_second": "21.1417514483",
                "kilometers_per_hour": "76110.305213858",
                "miles_per_hour": "47291.9838146886"
            },
            "miss_distance": {
                "astronomical": "0.0726438976",
                "lunar": "28.2584761664",
                "kilometers": "10867372.349458112",
                "miles": "6752672.0523894656"
            },
            "orbiting_body": "Earth"
        },
        {
            "close_approach_date": "2032-03-10",
            "close_approach_date_full": "2032-Mar-10 05:13",
            "epoch_date_close_approach": 1962508380000,
            "relative_velocity": {
                "kilometers_per_second": "20.3475574339",
                "kilometers_per_hour": "73251.2067621811",
                "miles_per_hour": "45515.4512239786"
            },
            "miss_distance": {
                "astronomical": "0.1539332693",
                "lunar": "59.8800417577",
                "kilometers": "23028089.209416391",
                "miles": "14308991.1179965558"
            },
            "orbiting_body": "Earth"
        }
    ],
    "orbital_data": {
        "orbit_id": "6",
        "orbit_determination_date": "2020-09-22 06:46:37",
        "first_observation_date": "2020-09-09",
        "last_observation_date": "2020-09-22",
        "data_arc_in_days": 13,
        "observations_used": 53,
        "orbit_uncertainty": "7",
        "minimum_orbit_intersection": ".0589301",
        "jupiter_tisserand_invariant": "4.255",
        "epoch_osculation": "2459000.5",
        "eccentricity": ".4904150519580961",
        "semi_major_axis": "1.51106697485274",
        "inclination": "30.27272645041603",
        "ascending_node_longitude": "359.7367827623907",
        "orbital_period": "678.4596090846092",
        "perihelion_distance": ".7700169858681706",
        "perihelion_argument": "82.90557567806455",
        "aphelion_distance": "2.25211696383731",
        "perihelion_time": "2459171.474607324593",
        "mean_anomaly": "269.2785217974892",
        "mean_motion": ".5306137538323304",
        "equinox": "J2000",
        "orbit_class": {
            "orbit_class_type": "APO",
            "orbit_class_description": "Near-Earth asteroid orbits which cross the Earth’s orbit similar to that of 1862 Apollo",
            "orbit_class_range": "a (semi-major axis) > 1.0 AU; q (perihelion) < 1.017 AU"
        }
    },
    "is_sentry_object": false
}